[{"OBJECT_NAME":"YAOGAN-30 04A","OBJECT_ID":"2017-085A","EPOCH":"2026-03-10T00:12:03.633696","MEAN_MOTION":15.02145245,"ECCENTRICITY":0.00047902,"INCLINATION":34.9971,"RA_OF_ASC_NODE":34.3088,"ARG_OF_PERICENTER":351.1621,"MEAN_ANOMALY":8.9003,"EPHEMERIS_TYPE":0,"CLASSIFICATION_TYPE":"U","NORAD_CAT_ID":43081,"ELEMENT_SET_NO":999,"REV_AT_EPOCH":44779,"BSTAR":0.00033587992,"MEAN_MOTION_DOT":4.482e-5,"MEAN_MOTION_DDOT":0},{"OBJECT_NAME":"STARLINK-6128","OBJECT_ID":"2023-090AH","EPOCH":"2026-03-09T22:06:48.089952","MEAN_MOTION":15.02528758,"ECCENTRICITY":0.00012531,"INCLINATION":43.0031,"RA_OF_ASC_NODE":272.9219,"ARG_OF_PERICENTER":269.2432,"MEAN_ANOMALY":90.8267,"EPHEMERIS_TYPE":0,"CLASSIFICATION_TYPE":"U","NORAD_CAT_ID":57132,"ELEMENT_SET_NO":999,"REV_AT_EPOCH":15026,"BSTAR":-2.2605727e-5,"MEAN_MOTION_DOT":-5.09e-6,"MEAN_MOTION_DDOT":0}]
